{
  "type": "FeatureCollection",
  "features": [
    {
      "type": "Feature",
      "properties": {
        "norad_id": 27954,
        "name": "GALAXY 13 (HORIZONS-1)",
        "group": "intelsat",
        "lat": 0.45783331227089347,
        "lon": 113.17951565251538,
        "alt_km": 35795.37497949511,
        "timestamp": "2025-12-21T11:31:42.509786+00:00",
        "meta_object_name": "GALAXY 13 (HORIZONS-1)",
        "meta_object_id": "2003-044A",
        "meta_epoch": "2025-12-21T00:29:59.623008",
        "meta_mean_motion": 1.00270036,
        "meta_eccentricity": 0.0002381,
        "meta_inclination": 0.9579,
        "meta_ra_of_asc_node": 86.3652,
        "meta_arg_of_pericenter": 178.8264,
        "meta_mean_anomaly": 42.1324,
        "meta_ephemeris_type": 0,
        "meta_classification_type": "U",
        "meta_norad_cat_id": 27954,
        "meta_element_set_no": 999,
        "meta_rev_at_epoch": 4478,
        "meta_bstar": 0,
        "meta_mean_motion_dot": 1.55e-06,
        "meta_mean_motion_ddot": 0,
        "tle_line1": "1 27954U 03044A   25355.02082897  .00000155  00000+0  00000+0 0  9993",
        "tle_line2": "2 27954   0.9579  86.3652 0002381 178.8264  42.1324  1.00270036 44787"
      },
      "geometry": {
        "type": "Point",
        "coordinates": [
          113.17951565251538,
          0.45783331227089347
        ]
      }
    },
    {
      "type": "Feature",
      "properties": {
        "norad_id": 28358,
        "name": "INTELSAT 10-02",
        "group": "intelsat",
        "lat": -0.020304668736407766,
        "lon": -97.75031956026308,
        "alt_km": 35782.84561306057,
        "timestamp": "2025-12-21T11:31:42.509807+00:00",
        "meta_object_name": "INTELSAT 10-02",
        "meta_object_id": "2004-022A",
        "meta_epoch": "2025-12-21T02:55:15.707712",
        "meta_mean_motion": 1.00272896,
        "meta_eccentricity": 9.82e-05,
        "meta_inclination": 0.0211,
        "meta_ra_of_asc_node": 73.8593,
        "meta_arg_of_pericenter": 233.9977,
        "meta_mean_anomaly": 184.9424,
        "meta_ephemeris_type": 0,
        "meta_classification_type": "U",
        "meta_norad_cat_id": 28358,
        "meta_element_set_no": 999,
        "meta_rev_at_epoch": 7877,
        "meta_bstar": 0,
        "meta_mean_motion_dot": 1.3e-07,
        "meta_mean_motion_ddot": 0,
        "tle_line1": "1 28358U 04022A   25355.12170958  .00000013  00000+0  00000+0 0  9999",
        "tle_line2": "2 28358   0.0211  73.8593 0000982 233.9977 184.9424  1.00272896 78772"
      },
      "geometry": {
        "type": "Point",
        "coordinates": [
          -97.75031956026308,
          -0.020304668736407766
        ]
      }
    },
    {
      "type": "Feature",
      "properties": {
        "norad_id": 28626,
        "name": "XM-3 (RHYTHM)",
        "group": "intelsat",
        "lat": -0.19832369504804528,
        "lon": -24.03541523628441,
        "alt_km": 36153.21420020861,
        "timestamp": "2025-12-21T11:31:42.509837+00:00",
        "meta_object_name": "XM-3 (RHYTHM)",
        "meta_object_id": "2005-008A",
        "meta_epoch": "2025-12-21T03:16:43.654368",
        "meta_mean_motion": 0.98949883,
        "meta_eccentricity": 0.0001963,
        "meta_inclination": 0.1953,
        "meta_ra_of_asc_node": 82.0029,
        "meta_arg_of_pericenter": 277.8212,
        "meta_mean_anomaly": 213.7097,
        "meta_ephemeris_type": 0,
        "meta_classification_type": "U",
        "meta_norad_cat_id": 28626,
        "meta_element_set_no": 999,
        "meta_rev_at_epoch": 4083,
        "meta_bstar": 0,
        "meta_mean_motion_dot": 8.2e-07,
        "meta_mean_motion_ddot": 0,
        "tle_line1": "1 28626U 05008A   25355.13661637  .00000082  00000+0  00000+0 0  9998",
        "tle_line2": "2 28626   0.1953  82.0029 0001963 277.8212 213.7097  0.98949883 40835"
      },
      "geometry": {
        "type": "Point",
        "coordinates": [
          -24.03541523628441,
          -0.19832369504804528
        ]
      }
    },
    {
      "type": "Feature",
      "properties": {
        "norad_id": 28659,
        "name": "DIRECTV 8",
        "group": "intelsat",
        "lat": 0.03791460610637449,
        "lon": 144.14474544636676,
        "alt_km": 35795.639284872566,
        "timestamp": "2025-12-21T11:31:42.509854+00:00",
        "meta_object_name": "DIRECTV 8",
        "meta_object_id": "2005-019A",
        "meta_epoch": "2025-12-21T04:32:38.608800",
        "meta_mean_motion": 1.00270172,
        "meta_eccentricity": 0.0002908,
        "meta_inclination": 0.0251,
        "meta_ra_of_asc_node": 17.7995,
        "meta_arg_of_pericenter": 264.2314,
        "meta_mean_anomaly": 117.0933,
        "meta_ephemeris_type": 0,
        "meta_classification_type": "U",
        "meta_norad_cat_id": 28659,
        "meta_element_set_no": 999,
        "meta_rev_at_epoch": 7528,
        "meta_bstar": 0,
        "meta_mean_motion_dot": 0,
        "meta_mean_motion_ddot": 0,
        "tle_line1": "1 28659U 05019A   25355.18933575  .00000000  00000+0  00000+0 0  9994",
        "tle_line2": "2 28659   0.0251  17.7995 0002908 264.2314 117.0933  1.00270172 75285"
      },
      "geometry": {
        "type": "Point",
        "coordinates": [
          144.14474544636676,
          0.03791460610637449
        ]
      }
    },
    {
      "type": "Feature",
      "properties": {
        "norad_id": 28702,
        "name": "GALAXY 28 (G-28)",
        "group": "intelsat",
        "lat": 2.842738783402036,
        "lon": 174.50679747984503,
        "alt_km": 35788.31854227748,
        "timestamp": "2025-12-21T11:31:42.509868+00:00",
        "meta_object_name": "GALAXY 28 (G-28)",
        "meta_object_id": "2005-022A",
        "meta_epoch": "2025-12-20T00:49:30.482112",
        "meta_mean_motion": 1.00271047,
        "meta_eccentricity": 0.00029384,
        "meta_inclination": 2.8382,
        "meta_ra_of_asc_node": 81.1982,
        "meta_arg_of_pericenter": 194.0723,
        "meta_mean_anomaly": 97.2981,
        "meta_ephemeris_type": 0,
        "meta_classification_type": "U",
        "meta_norad_cat_id": 28702,
        "meta_element_set_no": 999,
        "meta_rev_at_epoch": 5017,
        "meta_bstar": 0,
        "meta_mean_motion_dot": -1.65e-06,
        "meta_mean_motion_ddot": 0,
        "tle_line1": "1 28702U 05022A   25354.03438058 -.00000165  00000+0  00000+0 0  9999",
        "tle_line2": "2 28702   2.8382  81.1982 0002938 194.0723  97.2981  1.00271047 50172"
      },
      "geometry": {
        "type": "Point",
        "coordinates": [
          174.50679747984503,
          2.842738783402036
        ]
      }
    },
    {
      "type": "Feature",
      "properties": {
        "norad_id": 29236,
        "name": "GALAXY 16 (G-16)",
        "group": "intelsat",
        "lat": 0.0005598984010447166,
        "lon": 164.18411175431638,
        "alt_km": 35789.39426506267,
        "timestamp": "2025-12-21T11:31:42.509881+00:00",
        "meta_object_name": "GALAXY 16 (G-16)",
        "meta_object_id": "2006-023A",
        "meta_epoch": "2025-12-21T04:01:00.037056",
        "meta_mean_motion": 1.0027102,
        "meta_eccentricity": 0.0002461,
        "meta_inclination": 0.0031,
        "meta_ra_of_asc_node": 275.8302,
        "meta_arg_of_pericenter": 355.5918,
        "meta_mean_anomaly": 139.813,
        "meta_ephemeris_type": 0,
        "meta_classification_type": "U",
        "meta_norad_cat_id": 29236,
        "meta_element_set_no": 999,
        "meta_rev_at_epoch": 7118,
        "meta_bstar": 0,
        "meta_mean_motion_dot": -1.04e-06,
        "meta_mean_motion_ddot": 0,
        "tle_line1": "1 29236U 06023A   25355.16736154 -.00000104  00000+0  00000+0 0  9990",
        "tle_line2": "2 29236   0.0031 275.8302 0002461 355.5918 139.8130  1.00271020 71189"
      },
      "geometry": {
        "type": "Point",
        "coordinates": [
          164.18411175431638,
          0.0005598984010447166
        ]
      }
    },
    {
      "type": "Feature",
      "properties": {
        "norad_id": 29494,
        "name": "DIRECTV 9S",
        "group": "intelsat",
        "lat": 1.9347525473414666,
        "lon": 161.9735120955245,
        "alt_km": 35790.83200910764,
        "timestamp": "2025-12-21T11:31:42.509893+00:00",
        "meta_object_name": "DIRECTV 9S",
        "meta_object_id": "2006-043A",
        "meta_epoch": "2025-12-21T05:07:11.381088",
        "meta_mean_motion": 1.00271547,
        "meta_eccentricity": 0.0002838,
        "meta_inclination": 1.9607,
        "meta_ra_of_asc_node": 83.1237,
        "meta_arg_of_pericenter": 193.1138,
        "meta_mean_anomaly": 149.3848,
        "meta_ephemeris_type": 0,
        "meta_classification_type": "U",
        "meta_norad_cat_id": 29494,
        "meta_element_set_no": 999,
        "meta_rev_at_epoch": 4959,
        "meta_bstar": 0,
        "meta_mean_motion_dot": -9.2e-07,
        "meta_mean_motion_ddot": 0,
        "tle_line1": "1 29494U 06043A   25355.21332617 -.00000092  00000+0  00000+0 0  9996",
        "tle_line2": "2 29494   1.9607  83.1237 0002838 193.1138 149.3848  1.00271547 49595"
      },
      "geometry": {
        "type": "Point",
        "coordinates": [
          161.9735120955245,
          1.9347525473414666
        ]
      }
    }
  ]
}